start=new Date('2023-01-18T00:00:00.000Z').valueOf();
sats=[{"PERIOD":"95.439","ECCENTRICITY":"0.00011190","SITE":"AFETR","MEAN_MOTION_DOT":"-0.00008289","REV_AT_EPOCH":"1820","TLE_LINE1":"1 53920U 22119AL  23017.38372846 -.00008289  00000-0 -50372-3 0  9997","BSTAR":"-0.00050372000000","REF_FRAME":"TEME","NORAD_CAT_ID":"53920","ARG_OF_PERICENTER":"71.3878","ELEMENT_SET_NO":"999","OBJECT_NAME":"STARLINK-5025","RCS_SIZE":"LARGE","OBJECT_ID":"2022-119AL","MEAN_MOTION_DDOT":"0.0000000000000","LAUNCH_DATE":"2022-09-24","MEAN_MOTION":"15.08811952","DECAY_DATE":null,"FILE":"3753075","EPOCH":"2023-01-17T09:12:34.138944","CLASSIFICATION_TYPE":"U","PERIAPSIS":"539.057","OBJECT_TYPE":"PAYLOAD","TIME_SYSTEM":"UTC","APOAPSIS":"540.605","SEMIMAJOR_AXIS":"6917.966","CENTER_NAME":"EARTH","COUNTRY_CODE":"US","MEAN_ANOMALY":"288.7236","RA_OF_ASC_NODE":"64.3606","TLE_LINE2":"2 53920  53.2166  64.3606 0001119  71.3878 288.7236 15.08811952 18202","GP_ID":"223353804","EPHEMERIS_TYPE":"0","MEAN_ELEMENT_THEORY":"SGP4","INCLINATION":"53.2166"},{"ARG_OF_PERICENTER":"121.5286","NORAD_CAT_ID":"53922","OBJECT_ID":"2022-119AN","RCS_SIZE":"LARGE","MEAN_MOTION_DDOT":"0.0000000000000","ELEMENT_SET_NO":"999","OBJECT_NAME":"STARLINK-5002","ECCENTRICITY":"0.00017290","SITE":"AFETR","MEAN_MOTION_DOT":"0.00037508","PERIOD":"95.440","REF_FRAME":"TEME","REV_AT_EPOCH":"1864","BSTAR":"0.00236510000000","TLE_LINE1":"1 53922U 22119AN  23017.51252909  .00037508  00000-0  23651-2 0  9994","MEAN_ANOMALY":"238.5875","RA_OF_ASC_NODE":"63.7383","TLE_LINE2":"2 53922  53.2156  63.7383 0001729 121.5286 238.5875 15.08796426 18644","GP_ID":"223326355","TIME_SYSTEM":"UTC","CENTER_NAME":"EARTH","APOAPSIS":"541.075","SEMIMAJOR_AXIS":"6918.014","COUNTRY_CODE":"US","MEAN_ELEMENT_THEORY":"SGP4","INCLINATION":"53.2156","EPHEMERIS_TYPE":"0","FILE":"3753023","EPOCH":"2023-01-17T12:18:02.513376","DECAY_DATE":null,"CLASSIFICATION_TYPE":"U","PERIAPSIS":"538.682","OBJECT_TYPE":"PAYLOAD","LAUNCH_DATE":"2022-09-24","MEAN_MOTION":"15.08796426"},{"EPHEMERIS_TYPE":"0","INCLINATION":"53.2170","MEAN_ELEMENT_THEORY":"SGP4","APOAPSIS":"541.530","CENTER_NAME":"EARTH","SEMIMAJOR_AXIS":"6917.923","TIME_SYSTEM":"UTC","COUNTRY_CODE":"US","MEAN_ANOMALY":"285.8339","GP_ID":"223325151","TLE_LINE2":"2 53923  53.2170  64.3811 0002518  74.2931 285.8339 15.08825952 18627","RA_OF_ASC_NODE":"64.3811","LAUNCH_DATE":"2022-09-24","MEAN_MOTION":"15.08825952","DECAY_DATE":null,"FILE":"3753023","EPOCH":"2023-01-17T09:17:53.551968","OBJECT_TYPE":"PAYLOAD","CLASSIFICATION_TYPE":"U","PERIAPSIS":"538.046","ELEMENT_SET_NO":"999","OBJECT_NAME":"STARLINK-5004","OBJECT_ID":"2022-119AP","RCS_SIZE":"LARGE","MEAN_MOTION_DDOT":"0.0000000000000","NORAD_CAT_ID":"53923","ARG_OF_PERICENTER":"74.2931","TLE_LINE1":"1 53923U 22119AP  23017.38742537 -.00002557  00000-0 -14263-3 0  9999","BSTAR":"-0.00014263000000","REV_AT_EPOCH":"1862","REF_FRAME":"TEME","PERIOD":"95.438","SITE":"AFETR","ECCENTRICITY":"0.00025180","MEAN_MOTION_DOT":"-0.00002557"},{"COUNTRY_CODE":"US","TIME_SYSTEM":"UTC","CENTER_NAME":"EARTH","APOAPSIS":"540.996","SEMIMAJOR_AXIS":"6917.974","RA_OF_ASC_NODE":"59.5062","TLE_LINE2":"2 53924  53.2163  59.5062 0001672 107.6663 252.4512 15.08809391 18696","GP_ID":"223324905","MEAN_ANOMALY":"252.4512","EPHEMERIS_TYPE":"0","MEAN_ELEMENT_THEORY":"SGP4","INCLINATION":"53.2163","MEAN_MOTION":"15.08809391","LAUNCH_DATE":"2022-09-24","CLASSIFICATION_TYPE":"U","PERIAPSIS":"538.682","OBJECT_TYPE":"PAYLOAD","EPOCH":"2023-01-17T09:43:47.770464","FILE":"3753023","DECAY_DATE":null,"NORAD_CAT_ID":"53924","ARG_OF_PERICENTER":"107.6663","OBJECT_NAME":"STARLINK-5001","ELEMENT_SET_NO":"999","MEAN_MOTION_DDOT":"0.0000000000000","RCS_SIZE":"LARGE","OBJECT_ID":"2022-119AQ","PERIOD":"95.439","MEAN_MOTION_DOT":"-0.00006991","ECCENTRICITY":"0.00016720","SITE":"AFETR","REV_AT_EPOCH":"1869","TLE_LINE1":"1 53924U 22119AQ  23017.40541401 -.00006991  00000-0 -42193-3 0  9999","BSTAR":"-0.00042193000000","REF_FRAME":"TEME"},{"FILE":"3753101","DECAY_DATE":null,"EPOCH":"2023-01-17T11:56:49.100064","PERIAPSIS":"538.862","CLASSIFICATION_TYPE":"U","OBJECT_TYPE":"PAYLOAD","LAUNCH_DATE":"2022-09-24","MEAN_MOTION":"15.08822872","MEAN_ANOMALY":"276.9499","RA_OF_ASC_NODE":"63.6557","GP_ID":"223354590","TLE_LINE2":"2 53925  53.2169  63.6557 0001352  83.1647 276.9499 15.08822872 18226","TIME_SYSTEM":"UTC","CENTER_NAME":"EARTH","APOAPSIS":"540.733","SEMIMAJOR_AXIS":"6917.933","COUNTRY_CODE":"US","MEAN_ELEMENT_THEORY":"SGP4","INCLINATION":"53.2169","EPHEMERIS_TYPE":"0","ECCENTRICITY":"0.00013520","SITE":"AFETR","MEAN_MOTION_DOT":"-0.00007454","PERIOD":"95.439","REF_FRAME":"TEME","REV_AT_EPOCH":"1822","BSTAR":"-0.00045093000000","TLE_LINE1":"1 53925U 22119AR  23017.49779051 -.00007454  00000-0 -45093-3 0  9990","ARG_OF_PERICENTER":"83.1647","NORAD_CAT_ID":"53925","RCS_SIZE":"LARGE","OBJECT_ID":"2022-119AR","MEAN_MOTION_DDOT":"0.0000000000000","ELEMENT_SET_NO":"999","OBJECT_NAME":"STARLINK-5011"},{"PERIAPSIS":"538.654","CLASSIFICATION_TYPE":"U","OBJECT_TYPE":"PAYLOAD","DECAY_DATE":null,"FILE":"3753023","EPOCH":"2023-01-17T12:22:45.090624","MEAN_MOTION":"15.08818478","LAUNCH_DATE":"2022-09-24","MEAN_ELEMENT_THEORY":"SGP4","INCLINATION":"53.2175","EPHEMERIS_TYPE":"0","RA_OF_ASC_NODE":"58.7743","TLE_LINE2":"2 53926  53.2175  58.7743 0001673 103.8666 256.2513 15.08818478 18723","GP_ID":"223325875","MEAN_ANOMALY":"256.2513","COUNTRY_CODE":"US","TIME_SYSTEM":"UTC","CENTER_NAME":"EARTH","APOAPSIS":"540.969","SEMIMAJOR_AXIS":"6917.946","REF_FRAME":"TEME","REV_AT_EPOCH":"1872","BSTAR":"-0.00013638000000","TLE_LINE1":"1 53926U 22119AS  23017.51579966 -.00002457  00000-0 -13638-3 0  9995","MEAN_MOTION_DOT":"-0.00002457","SITE":"AFETR","ECCENTRICITY":"0.00016730","PERIOD":"95.439","MEAN_MOTION_DDOT":"0.0000000000000","OBJECT_ID":"2022-119AS","RCS_SIZE":"LARGE","OBJECT_NAME":"STARLINK-5014","ELEMENT_SET_NO":"999","ARG_OF_PERICENTER":"103.8666","NORAD_CAT_ID":"53926"},{"EPHEMERIS_TYPE":"0","INCLINATION":"53.2193","MEAN_ELEMENT_THEORY":"SGP4","COUNTRY_CODE":"US","APOAPSIS":"540.830","CENTER_NAME":"EARTH","SEMIMAJOR_AXIS":"6917.920","TIME_SYSTEM":"UTC","GP_ID":"223383522","TLE_LINE2":"2 53927  53.2193  57.7047 0001511 106.5420 253.5738 15.08827118 18752","RA_OF_ASC_NODE":"57.7047","MEAN_ANOMALY":"253.5738","MEAN_MOTION":"15.08827118","LAUNCH_DATE":"2022-09-24","OBJECT_TYPE":"PAYLOAD","CLASSIFICATION_TYPE":"U","PERIAPSIS":"538.739","DECAY_DATE":null,"FILE":"3753286","EPOCH":"2023-01-17T19:10:48.962784","OBJECT_NAME":"STARLINK-5008","ELEMENT_SET_NO":"999","MEAN_MOTION_DDOT":"0.0000000000000","OBJECT_ID":"2022-119AT","RCS_SIZE":"LARGE","NORAD_CAT_ID":"53927","ARG_OF_PERICENTER":"106.5420","TLE_LINE1":"1 53927U 22119AT  23017.79917781 -.00002212  00000-0 -12096-3 0  9993","BSTAR":"-0.00012096000000","REV_AT_EPOCH":"1875","REF_FRAME":"TEME","PERIOD":"95.438","MEAN_MOTION_DOT":"-0.00002212","ECCENTRICITY":"0.00015110","SITE":"AFETR"},{"APOAPSIS":"540.741","SEMIMAJOR_AXIS":"6917.935","CENTER_NAME":"EARTH","TIME_SYSTEM":"UTC","COUNTRY_CODE":"US","MEAN_ANOMALY":"207.7350","TLE_LINE2":"2 53928  53.2158  52.0744 0001361 123.7413 207.7350 15.08822277  1307","GP_ID":"223383762","RA_OF_ASC_NODE":"52.0744","EPHEMERIS_TYPE":"0","INCLINATION":"53.2158","MEAN_ELEMENT_THEORY":"SGP4","LAUNCH_DATE":"2022-09-24","MEAN_MOTION":"15.08822277","FILE":"3753286","DECAY_DATE":null,"EPOCH":"2023-01-17T22:00:00.999936","OBJECT_TYPE":"PAYLOAD","CLASSIFICATION_TYPE":"U","PERIAPSIS":"538.858","NORAD_CAT_ID":"53928","ARG_OF_PERICENTER":"123.7413","ELEMENT_SET_NO":"999","OBJECT_NAME":"STARLINK-5009","RCS_SIZE":"LARGE","OBJECT_ID":"2022-119AU","MEAN_MOTION_DDOT":"0.0000000000000","PERIOD":"95.439","SITE":"AFETR","ECCENTRICITY":"0.00013610","MEAN_MOTION_DOT":"0.00061877","BSTAR":"0.00387390000000","TLE_LINE1":"1 53928U 22119AU  23017.91667824  .00061877  00000-0  38739-2 0  9999","REV_AT_EPOCH":"130","REF_FRAME":"TEME"},{"MEAN_MOTION":"15.08818379","LAUNCH_DATE":"2022-09-24","CLASSIFICATION_TYPE":"U","PERIAPSIS":"538.983","OBJECT_TYPE":"PAYLOAD","FILE":"3753023","DECAY_DATE":null,"EPOCH":"2023-01-17T12:12:44.882784","COUNTRY_CODE":"US","TIME_SYSTEM":"UTC","CENTER_NAME":"EARTH","APOAPSIS":"540.640","SEMIMAJOR_AXIS":"6917.946","RA_OF_ASC_NODE":"63.7160","GP_ID":"223325637","TLE_LINE2":"2 53929  53.2176  63.7160 0001198 101.8296 258.2830 15.08818379 18640","MEAN_ANOMALY":"258.2830","EPHEMERIS_TYPE":"0","MEAN_ELEMENT_THEORY":"SGP4","INCLINATION":"53.2176","PERIOD":"95.439","MEAN_MOTION_DOT":"-0.00002179","ECCENTRICITY":"0.00011980","SITE":"AFETR","REV_AT_EPOCH":"1864","BSTAR":"-0.00011894000000","TLE_LINE1":"1 53929U 22119AV  23017.50885281 -.00002179  00000-0 -11894-3 0  9990","REF_FRAME":"TEME","NORAD_CAT_ID":"53929","ARG_OF_PERICENTER":"101.8296","OBJECT_NAME":"STARLINK-5018","ELEMENT_SET_NO":"999","MEAN_MOTION_DDOT":"0.0000000000000","OBJECT_ID":"2022-119AV","RCS_SIZE":"LARGE"},{"SITE":"AFETR","ECCENTRICITY":"0.00013790","MEAN_MOTION_DOT":"0.00068874","PERIOD":"95.440","REF_FRAME":"TEME","TLE_LINE1":"1 53930U 22119AW  23017.91667824  .00068874  00000-0  43076-2 0  9996","BSTAR":"0.00430760000000","REV_AT_EPOCH":"130","ARG_OF_PERICENTER":"101.3397","NORAD_CAT_ID":"53930","RCS_SIZE":"LARGE","OBJECT_ID":"2022-119AW","MEAN_MOTION_DDOT":"0.0000000000000","ELEMENT_SET_NO":"999","OBJECT_NAME":"STARLINK-5010","EPOCH":"2023-01-17T22:00:00.999936","FILE":"3753286","DECAY_DATE":null,"OBJECT_TYPE":"PAYLOAD","PERIAPSIS":"538.895","CLASSIFICATION_TYPE":"U","LAUNCH_DATE":"2022-09-24","MEAN_MOTION":"15.08806107","MEAN_ANOMALY":"305.0821","GP_ID":"223385200","TLE_LINE2":"2 53930  53.2155  51.9280 0001379 101.3397 305.0821 15.08806107  1301","RA_OF_ASC_NODE":"51.9280","APOAPSIS":"540.803","CENTER_NAME":"EARTH","SEMIMAJOR_AXIS":"6917.984","TIME_SYSTEM":"UTC","COUNTRY_CODE":"US","INCLINATION":"53.2155","MEAN_ELEMENT_THEORY":"SGP4","EPHEMERIS_TYPE":"0"}];
